[{"OBJECT_NAME":"STARLINK-31690","OBJECT_ID":"2024-076T","EPOCH":"2026-03-09T03:50:02.129568","MEAN_MOTION":15.27566842,"ECCENTRICITY":0.00010797,"INCLINATION":43.0064,"RA_OF_ASC_NODE":11.8152,"ARG_OF_PERICENTER":265.0084,"MEAN_ANOMALY":95.0645,"EPHEMERIS_TYPE":0,"CLASSIFICATION_TYPE":"U","NORAD_CAT_ID":59581,"ELEMENT_SET_NO":999,"REV_AT_EPOCH":10643,"BSTAR":-6.8074551e-5,"MEAN_MOTION_DOT":-2.134e-5,"MEAN_MOTION_DDOT":0},{"OBJECT_NAME":"TRANSPORTER-1 OBJECT Z","OBJECT_ID":"2021-006Z","EPOCH":"2026-03-09T22:55:57.522432","MEAN_MOTION":15.30965056,"ECCENTRICITY":0.00100878,"INCLINATION":97.2377,"RA_OF_ASC_NODE":113.4736,"ARG_OF_PERICENTER":179.6869,"MEAN_ANOMALY":180.438,"EPHEMERIS_TYPE":0,"CLASSIFICATION_TYPE":"U","NORAD_CAT_ID":47436,"ELEMENT_SET_NO":999,"REV_AT_EPOCH":28420,"BSTAR":0.00024088983,"MEAN_MOTION_DOT":7.143e-5,"MEAN_MOTION_DDOT":0}]
